NORAD_CAT_ID,OBJECT_NAME,OBJECT_TYPE,EPOCH,MEAN_MOTION,ECCENTRICITY,INCLINATION,RA_OF_ASC_NODE,ARG_OF_PERICENTER,MEAN_ANOMALY,BSTAR,MEAN_MOTION_DOT,MEAN_MOTION_DDOT,TLE_LINE0,TLE_LINE1,TLE_LINE2,SEMIMAJOR_AXIS,PERIOD,APOGEE,PERIGEE,DECAYED
51740.0,STARLINK-3500,PAYLOAD,2024-05-24 01:05:45,15.08846193,0.0001563,53.2192,17.9227,84.1281,275.9889,4.0469e-05,3.56e-06,0.0,0 STARLINK-3500,1 51740U 22016AC  24145.04566350  .00000356  00000-0  40469-4 0  9994,2 51740  53.2192  17.9227 0001563  84.1281 275.9889 15.08846193124738,6917.861,95.437,540.808,538.645,0.0
51740.0,STARLINK-3500,PAYLOAD,2024-05-24 21:45:46,15.08840307,0.0001389,53.2186,14.0621,106.7445,253.3699,5.9194e-05,6.54e-06,0.0,0 STARLINK-3500,1 51740U 22016AC  24145.90678428  .00000654  00000-0  59194-4 0  9995,2 51740  53.2186  14.0621 0001389 106.7445 253.3699 15.08840307125928,6917.879,95.438,540.705,538.784,0.0
51740.0,STARLINK-3500,PAYLOAD,2024-05-25 21:36:33,15.08835448,0.000114,53.218,9.606,90.4797,269.6325,-4.125e-05,-9.44e-06,0.0,0 STARLINK-3500,1 51740U 22016AC  24146.90039193 -.00000944  00000-0 -41250-4 0  9994,2 51740  53.2180   9.6060 0001140  90.4797 269.6325 15.08835448126076,6917.894,95.438,540.548,538.971,0.0
51740.0,STARLINK-3500,PAYLOAD,2024-05-26 00:47:19,15.08838475,0.0001162,53.2176,9.011,91.853,268.2595,-1.6304e-05,-5.47e-06,0.0,0 STARLINK-3500,1 51740U 22016AC  24147.03287004 -.00000547  00000-0 -16304-4 0  9996,2 51740  53.2176   9.0110 0001162  91.8530 268.2595 15.08838475125037,6917.885,95.438,540.554,538.946,0.0
51740.0,STARLINK-3500,PAYLOAD,2024-05-26 18:16:34,15.0883458,0.0001165,53.2185,5.7402,98.847,261.2654,7.8322e-05,9.59e-06,0.0,0 STARLINK-3500,1 51740U 22016AC  24147.76150976  .00000959  00000-0  78322-4 0  9996,2 51740  53.2185   5.7402 0001165  98.8470 261.2654 15.08834580125141,6917.897,95.438,540.568,538.956,0.0
51740.0,STARLINK-3500,PAYLOAD,2024-05-27 06:59:39,15.08840868,0.0001164,53.2182,3.3607,105.7393,254.3728,0.00010529,1.388e-05,0.0,0 STARLINK-3500,1 51740U 22016AC  24148.29142500  .00001388  00000-0  10529-3 0  9990,2 51740  53.2182   3.3607 0001164 105.7393 254.3728 15.08840868126287,6917.878,95.437,540.548,538.937,0.0
51740.0,STARLINK-3500,PAYLOAD,2024-05-27 21:18:07,15.08833654,0.0001172,53.2183,0.6844,103.7272,256.385,7.3302e-05,8.79e-06,0.0,0 STARLINK-3500,1 51740U 22016AC  24148.88759172  .00000879  00000-0  73302-4 0  9997,2 51740  53.2183   0.6844 0001172 103.7272 256.3850 15.08833654126377,6917.9,95.438,540.576,538.954,0.0
51740.0,STARLINK-3500,PAYLOAD,2024-05-28 06:50:26,15.08835242,0.0001205,53.2187,358.9004,102.375,257.7377,6.0059e-05,6.68e-06,0.0,0 STARLINK-3500,1 51740U 22016AC  24149.28503249  .00000668  00000-0  60059-4 0  9995,2 51740  53.2187 358.9004 0001205 102.3750 257.7377 15.08835242125374,6917.895,95.438,540.594,538.926,0.0
51740.0,STARLINK-3500,PAYLOAD,2024-05-28 21:08:54,15.08841703,0.0001179,53.2183,356.2265,101.3802,258.7322,1.8196e-05,2e-08,0.0,0 STARLINK-3500,1 51740U 22016AC  24149.88119019  .00000002  00000-0  18196-4 0  9996,2 51740  53.2183 356.2265 0001179 101.3802 258.7322 15.08841703125467,6917.875,95.437,540.556,538.925,0.0
51740.0,STARLINK-3500,PAYLOAD,2024-05-28 22:44:17,15.0884216,0.0001183,53.2184,355.9276,99.7123,260.4003,2.1505e-05,5.4e-07,0.0,0 STARLINK-3500,1 51740U 22016AC  24149.94742959  .00000054  00000-0  21505-4 0  9993,2 51740  53.2184 355.9276 0001183  99.7123 260.4003 15.08842160126530,6917.874,95.437,540.557,538.92,0.0
51740.0,STARLINK-3500,PAYLOAD,2024-05-29 22:35:04,15.08843144,0.0001228,53.2189,351.4648,90.3324,269.7809,0.00010623,1.403e-05,0.0,0 STARLINK-3500,1 51740U 22016AC  24150.94102628  .00001403  00000-0  10623-3 0  9995,2 51740  53.2189 351.4648 0001228  90.3324 269.7809 15.08843144125627,6917.871,95.437,540.585,538.886,0.0
51740.0,STARLINK-3500,PAYLOAD,2024-05-30 12:53:32,15.08844434,0.0001239,53.2189,348.792,94.7836,265.3297,6.4502e-05,7.39e-06,0.0,0 STARLINK-3500,1 51740U 22016AC  24151.53718662  .00000739  00000-0  64502-4 0  9999,2 51740  53.2189 348.7920 0001239  94.7836 265.3297 15.08844434126770,6917.867,95.437,540.589,538.875,0.0
51740.0,STARLINK-3500,PAYLOAD,2024-05-30 20:50:28,15.08845132,0.0001211,53.2186,347.3027,92.3549,267.7582,6.3381e-05,7.21e-06,0.0,0 STARLINK-3500,1 51740U 22016AC  24151.86838575  .00000721  00000-0  63381-4 0  9996,2 51740  53.2186 347.3027 0001211  92.3549 267.7582 15.08845132125762,6917.865,95.437,540.567,538.892,0.0
51740.0,STARLINK-3500,PAYLOAD,2024-05-31 12:44:19,15.08849513,0.0001137,53.2185,344.3285,104.3048,255.8071,3.0074e-05,1.91e-06,0.0,0 STARLINK-3500,1 51740U 22016AC  24152.53078170  .00000191  00000-0  30074-4 0  9992,2 51740  53.2185 344.3285 0001137 104.3048 255.8071 15.08849513125868,6917.851,95.437,540.503,538.93,0.0
51740.0,STARLINK-3500,PAYLOAD,2024-05-31 19:05:52,15.08843275,0.0001426,53.2184,343.1374,96.1186,263.9969,9.1166e-05,1.163e-05,0.0,0 STARLINK-3500,1 51740U 22016AC  24152.79574242  .00001163  00000-0  91166-4 0  9990,2 51740  53.2184 343.1374 0001426  96.1186 263.9969 15.08843275126962,6917.87,95.437,540.722,538.749,0.0
51740.0,STARLINK-3500,PAYLOAD,2024-05-31 22:16:38,15.088446,0.0001343,53.219,342.5437,100.0963,260.018,3.9995e-05,3.49e-06,0.0,0 STARLINK-3500,1 51740U 22016AC  24152.92822243  .00000349  00000-0  39995-4 0  9999,2 51740  53.2190 342.5437 0001343 100.0963 260.0180 15.08844600125929,6917.866,95.437,540.66,538.802,0.0
51740.0,STARLINK-3500,PAYLOAD,2024-06-01 06:13:33,15.08846494,0.0001322,53.2193,341.0571,100.8846,259.2295,6.0355e-05,6.73e-06,0.0,0 STARLINK-3500,1 51740U 22016AC  24153.25941930  .00000673  00000-0  60355-4 0  9995,2 51740  53.2193 341.0571 0001322 100.8846 259.2295 15.08846494125975,6917.861,95.437,540.64,538.811,0.0
51740.0,STARLINK-3500,PAYLOAD,2024-06-01 18:56:40,15.0883456,0.0001285,53.2187,338.6778,95.8106,264.3032,-8.0981e-05,-1.576e-05,0.0,0 STARLINK-3500,1 51740U 22016AC  24153.78935277 -.00001576  00000-0 -80981-4 0  9992,2 51740  53.2187 338.6778 0001285  95.8106 264.3032 15.08834560127114,6917.897,95.438,540.651,538.873,0.0
51740.0,STARLINK-3500,PAYLOAD,2024-06-02 12:25:54,15.08837266,0.000142,53.2186,335.4071,96.0602,264.0552,4.784e-05,4.73e-06,0.0,0 STARLINK-3500,1 51740U 22016AC  24154.51798833  .00000473  00000-0  47840-4 0  9999,2 51740  53.2186 335.4071 0001420  96.0602 264.0552 15.08837266127221,6917.889,95.438,540.736,538.771,0.0
51740.0,STARLINK-3500,PAYLOAD,2024-06-03 18:38:13,15.08836881,0.0001356,53.2181,329.7599,90.6197,269.4951,0.00015452,2.172e-05,0.0,0 STARLINK-3500,1 51740U 22016AC  24155.77654838  .00002172  00000-0  15452-3 0  9995,2 51740  53.2181 329.7599 0001356  90.6197 269.4951 15.08836881127419,6917.89,95.438,540.693,538.817,0.0
51740.0,STARLINK-3500,PAYLOAD,2024-06-03 21:48:59,15.08839716,0.0001631,53.2186,329.1625,85.4827,274.6351,0.00012641,1.724e-05,0.0,0 STARLINK-3500,1 51740U 22016AC  24155.90902748  .00001724  00000-0  12641-3 0  9995,2 51740  53.2186 329.1625 0001631  85.4827 274.6351 15.08839716126372,6917.881,95.438,540.875,538.618,0.0
51740.0,STARLINK-3500,PAYLOAD,2024-06-04 04:10:30,15.08868155,9.51e-05,53.2207,327.974,80.3976,279.7123,0.00033533,5.057e-05,0.0,0 STARLINK-3500,1 51740U 22016AC  24156.17396383  .00005057  00000-0  33533-3 0  9993,2 51740  53.2207 327.9740 0000951  80.3976 279.7123 15.08868155127477,6917.794,95.436,540.317,539.001,0.0
51740.0,STARLINK-3500,PAYLOAD,2024-06-04 20:04:25,15.08825944,0.0001711,53.2183,324.9995,81.5157,278.6029,-8.6352e-05,-1.662e-05,0.0,0 STARLINK-3500,1 51740U 22016AC  24156.83640228 -.00001662  00000-0 -86352-4 0  9994,2 51740  53.2183 324.9995 0001711  81.5157 278.6029 15.08825944127571,6917.923,95.438,540.972,538.605,0.0
51740.0,STARLINK-3500,PAYLOAD,2024-06-05 04:01:19,15.08861196,8.47e-05,53.2203,323.513,62.1058,298.002,-0.00015852,-2.811e-05,0.0,0 STARLINK-3500,1 51740U 22016AC  24157.16759040 -.00002811  00000-0 -15852-3 0  9997,2 51740  53.2203 323.5130 0000847  62.1058 298.0020 15.08861196127626,6917.816,95.436,540.267,539.095,0.0
51740.0,STARLINK-3500,PAYLOAD,2024-06-05 19:55:12,15.0884287,0.0001374,53.2215,320.5394,67.5911,292.5226,-0.00026358,-4.481e-05,0.0,0 STARLINK-3500,1 51740U 22016AC  24157.83000104 -.00004481  00000-0 -26358-3 0  9999,2 51740  53.2215 320.5394 0001374  67.5911 292.5226 15.08842870127727,6917.872,95.437,540.687,538.786,0.0
51740.0,STARLINK-3500,PAYLOAD,2024-06-05 21:30:35,15.08844028,0.0001486,53.2189,320.2408,62.9889,297.1255,-0.00028044,-4.749e-05,0.0,0 STARLINK-3500,1 51740U 22016AC  24157.89624122 -.00004749  00000-0 -28044-3 0  9998,2 51740  53.2189 320.2408 0001486  62.9889 297.1255 15.08844028126670,6917.868,95.437,540.761,538.705,0.0
51740.0,STARLINK-3500,PAYLOAD,2024-06-06 03:52:06,15.08853164,9.79e-05,53.2213,319.0524,67.6057,292.5039,-0.00015428,-2.743e-05,0.0,0 STARLINK-3500,1 51740U 22016AC  24158.16118875 -.00002743  00000-0 -15428-3 0  9996,2 51740  53.2213 319.0524 0000979  67.6057 292.5039 15.08853164127770,6917.84,95.437,540.382,539.028,0.0
51740.0,STARLINK-3500,PAYLOAD,2024-06-08 03:33:41,15.08843576,0.0001392,53.2164,310.1321,98.8872,261.2278,9.4328e-05,1.214e-05,0.0,0 STARLINK-3500,1 51740U 22016AC  24160.14839877  .00001214  00000-0  94328-4 0  9996,2 51740  53.2164 310.1321 0001392  98.8872 261.2278 15.08843576128071,6917.869,95.437,540.697,538.771,0.0
51740.0,STARLINK-3500,PAYLOAD,2024-06-08 17:52:09,15.08846997,0.0001443,53.2179,307.4545,95.81,264.3057,1.3895e-05,-6.7e-07,0.0,0 STARLINK-3500,1 51740U 22016AC  24160.74454985 -.00000067  00000-0  13895-4 0  9991,2 51740  53.2179 307.4545 0001443  95.8100 264.3057 15.08846997127104,6917.859,95.437,540.722,538.726,0.0
51740.0,STARLINK-3500,PAYLOAD,2024-06-09 03:24:28,15.08848151,0.0001735,53.218,305.6681,122.4627,237.6533,0.00013137,1.804e-05,0.0,0 STARLINK-3500,1 51740U 22016AC  24161.14199209  .00001804  00000-0  13137-3 0  9998,2 51740  53.2180 305.6681 0001735 122.4627 237.6533 15.08848151127164,6917.855,95.437,540.921,538.52,0.0
